2023-050J               
1 56170U 23050J   23111.08454019  .00000011  00000+0  00000+0 0  9998
2 56170  81.0041  97.3134 0005881 173.3421 255.5196 13.83360813  2499
2023-050K               
1 56171U 23050K   23112.32010455  .00000143  00000+0  11939-3 0  9992
2 56171  80.9927  96.1145 0010628 133.4022 335.7265 13.83566333  2661
2023-051A               
1 56172U 23051A   23112.98901932  .00055322  29549-5  45051-3 0  9991
2 56172  97.3331 186.4829 0147636 292.8066 243.9948 15.57710237  2466
INTELSAT 40E            
1 56174U 23052A   23112.49968373 -.00000191  00000+0  00000+0 0  9993
2 56174   0.0199 255.7150 0004011 251.6452 141.9315  1.00830519   281
FALCON 9 R/B            
1 56175U 23052B   23112.51801987  .00033626  51985-6  13176-2 0  9998
2 56175  27.0546  89.2514 6980927 188.9160 144.8926  2.70959028   425
IMECE                   
1 56178U 23054A   23113.10367698  .00000752  00000+0  14605-3 0  9993
2 56178  98.2132   8.8042 0008200 180.1118 180.0095 14.66050706  1768
2023-054B               
1 56179U 23054B   23112.95672562  .00008459  00000+0  38423-3 0  9991
2 56179  97.4077   8.6762 0007544 223.8437 136.2200 15.20994766  1769
DEWASAT-2               
1 56180U 23054C   23112.95561437  .00013760  00000+0  61755-3 0  9996
2 56180  97.4141   8.6850 0009036 222.7254 137.3280 15.21266137  1769
KILICSAT                
1 56181U 23054D   23112.90154144  .00016333  00000+0  73170-3 0  9998
2 56181  97.4107   8.6266 0008422 219.5925 205.3360 15.21292532  1763
LEMUR-2-ONREFLECTION    
1 56182U 23054E   23112.95515757  .00016420  00000+0  73401-3 0  9999
2 56182  97.4032   8.6731 0007467 212.3646 147.7132 15.21373828  1772
2023-054F               
1 56183U 23054F   23112.88946939  .00010490  00000+0  47148-3 0  9992
2 56183  97.4057   8.6102 0007371 207.0892 152.9960 15.21295110  1763
2023-054G               
1 56184U 23054G   23112.95500654  .00013594  00000+0  60789-3 0  9995
2 56184  97.4166   8.6886 0009783 221.1548 138.8950 15.21385723  1771
BRO-9                   
1 56185U 23054H   23112.95489283  .00015192  00000+0  67850-3 0  9992
2 56185  97.4062   8.6770 0008061 213.3707 146.7022 15.21416354  1770
2023-054J               
1 56186U 23054J   23112.95507763  .00008972  00000+0  40330-3 0  9999
2 56186  97.4116   8.6833 0008914 218.2177 141.8427 15.21324294  1779
2023-054K               
1 56187U 23054K   23112.95439287  .00016934  00000+0  75326-3 0  9995
2 56187  97.4039   8.6731 0007702 202.3056 157.7846 15.21534332  1772
CIRBE                   
1 56188U 23054L   23112.95390102  .00016139  00000+0  71595-3 0  9999
2 56188  97.4118   8.6859 0008873 212.0204 148.0494 15.21629586  1773
UMBRA-06                
1 56189U 23054M   23112.95366890  .00009397  00000+0  41866-3 0  9993
2 56189  97.4132   8.6881 0009370 211.6875 148.3798 15.21614059  1776
2023-054N               
1 56190U 23054N   23112.88763664  .00011130  00000+0  49422-3 0  9991
2 56190  97.4065   8.6131 0008838 201.8228 158.2633 15.21683647  1768
HAWK-7A                 
1 56191U 23054P   23112.16362402  .00007404  00000+0  32891-3 0  9999
2 56191  97.4102   7.9082 0009429 207.3689 152.7051 15.21788407  1658
ION SCV-010             
1 56192U 23054Q   23112.95277828  .00005275  00000+0  23552-3 0  9992
2 56192  97.4097   8.6849 0009622 202.9414 157.1393 15.21752806  1778
HAWK-7B                 
1 56193U 23054R   23112.22917371  .00008778  00000+0  38873-3 0  9990
2 56193  97.4082   7.9689 0009679 203.4691 156.6104 15.21839039  1668
2023-054S               
1 56194U 23054S   23112.95229971  .00015376  00000+0  67629-3 0  9996
2 56194  97.4101   8.6867 0009801 203.8427 156.2356 15.21925331  1773
2023-054T               
1 56195U 23054T   23112.82076610  .00008387  00000+0  37103-3 0  9991
2 56195  97.4089   8.5528 0010185 200.7893 159.2930 15.21881354  1757
2023-054U               
1 56196U 23054U   23112.95110874  .00012005  00000+0  52530-3 0  9990
2 56196  97.4092   8.6879 0010661 205.2610 154.8106 15.22152087  1771
VIGORIDE 6              
1 56197U 23054V   23112.95112139  .00008840  00000+0  38812-3 0  9996
2 56197  97.4086   8.6839 0011016 202.4282 157.6474 15.22117108  1774
2023-054W               
1 56198U 23054W   23112.68711018  .00038238  00000+0  16405-2 0  9995
2 56198  97.4076   8.4245 0011223 200.0635 160.0162 15.22562983  1732
2023-054X               
1 56199U 23054X   23112.95070384  .00011046  00000+0  48259-3 0  9991
2 56199  97.4101   8.6887 0011129 204.9082 155.1618 15.22222342  1777
HAWK-7C                 
1 56200U 23054Y   23112.55628762  .00006408  00000+0  28176-3 0  9991
2 56200  97.4082   8.2951 0011359 203.5111 156.5607 15.22177375  1711
2023-054Z               
1 56201U 23054Z   23112.95006410  .00011578  00000+0  50361-3 0  9991
2 56201  97.4087   8.6860 0011811 203.5257 156.5440 15.22353124  1773
2023-054AA              
1 56202U 23054AA  23112.94997599  .00011425  00000+0  49672-3 0  9992
2 56202  97.4102   8.6894 0011903 203.3885 156.6811 15.22370932  1775
2023-054AB              
1 56203U 23054AB  23112.94987557  .00011456  00000+0  49776-3 0  9995
2 56203  97.4066   8.6825 0011943 199.8136 160.2638 15.22390888  1771
2023-054AC              
1 56204U 23054AC  23112.94896473  .00008925  00000+0  38671-3 0  9991
2 56204  97.4133   8.6929 0012835 198.0847 161.9934 15.22545862  1774
2023-054AD              
1 56205U 23054AD  23112.94665308  .00009898  00000+0  42225-3 0  9993
2 56205  97.4122   8.6957 0014656 196.1470 163.9302 15.23020273  1774
LEMUR-2-ROMEO-N-LEO     
1 56206U 23054AE  23112.94800328  .00026957  00000+0  11474-2 0  9993
2 56206  97.4036   8.6804 0012931 194.7922 165.2938 15.22889878  1773
2023-054AF              
1 56207U 23054AF  23112.94767810  .00019197  00000+0  81820-3 0  9993
2 56207  97.4160   8.6999 0013978 201.5100 158.5551 15.22902821  1774
2023-054AG              
1 56208U 23054AG  23112.81648690  .00011031  00000+0  47390-3 0  9997
2 56208  97.4026   8.5520 0012803 191.0894 169.0063 15.22775505  1754
2023-054AH              
1 56209U 23054AH  23112.94796351  .00004871  00000+0  21145-3 0  9994
2 56209  97.4096   8.6900 0013029 192.5823 167.5090 15.22718626  1770
CONNECTA T2.1           
1 56210U 23054AJ  23112.81601369  .00006504  00000+0  28025-3 0  9995
2 56210  97.4050   8.5554 0013523 192.1360 167.9553 15.22835802  1759
INSPIRE-SAT 7           
1 56211U 23054AK  23112.81555207  .00017041  00000+0  72421-3 0  9992
2 56211  97.4145   8.5686 0014375 199.2378 160.8318 15.23020683  1759
ROSEYCUBESAT-1          
1 56212U 23054AL  23112.94639046  .00017983  00000+0  76091-3 0  9993
2 56212  97.4148   8.6998 0014902 198.4103 161.6597 15.23149360  1777
2023-054AM              
1 56213U 23054AM  23112.81495511  .00017513  00000+0  74146-3 0  9995
2 56213  97.4071   8.5596 0014238 192.6787 167.4094 15.23144197  1759
2023-054AN              
1 56214U 23054AN  23112.81466023  .00016050  00000+0  67879-3 0  9992
2 56214  97.4097   8.5633 0014727 194.2464 165.8360 15.23192444  1759
2023-054AP              
1 56215U 23054AP  23105.38529514 -.00000047  00000+0  00000+0 0  9991
2 56215  98.2100 359.9639 0004700 353.9000 352.2100 14.62024339   597
2023-054AQ              
1 56216U 23054AQ  23105.38529514 -.00000047  00000+0  00000+0 0  9992
2 56216  98.2100 359.9639 0004700 353.9000 352.2100 14.62024339   598
FENGYUN 3G              
1 56232U 23055A   23113.20840082 -.00000465  00000+0  00000+0 0  9991
2 56232  49.9965 160.8754 0005957 300.1996 129.7375 15.52188251  1112
CZ-4C R/B               
1 56233U 23055B   23112.88965098  .01787818  11614-4  71617-3 0  9998
2 56233  50.0688 160.0114 0109608  38.5327 131.2733 16.09589313  1098
2023-057A               
1 56308U 23057A   23113.24899885  .00000659  00000+0  00000+0 0  9990
2 56308   9.8900 303.1014 0021510 233.9474 278.5652 14.88251431   128
2023-057B               
1 56309U 23057B   23113.08348825  .00000686  00000+0  00000+0 0  9996
2 56309   9.9933 304.4186 0009154 359.0595   0.9589 14.94942556   100
2023-057C               
1 56310U 23057C   23113.17554707  .00000680  00000+0  00000+0 0  9990
2 56310   9.9894 303.7481 0006484 353.9663 140.9520 14.94280587   110
